[
    {
        "Altitude(m)": 716660.6941304923,
        "Argument of Periapsis(deg)": 0.005695060593313534,
        "Eccentricity": 0.0,
        "Inclination(deg)": 45.0,
        "Latitude(deg)": -42.191647200985706,
        "Longitude(deg)": 8.99988493154911,
        "Mean Anomaly(deg)": -108.7788916762595,
        "RAAN(deg)": 224.9946240292709,
        "Satellite Name": "Constellation 1 1005",
        "Satellite Number": 1005,
        "Semi-Major Axis(m)": 7083131.272910544,
        "Time(s)": 95
    },
    {
        "Altitude(m)": 716668.3646886064,
        "Argument of Periapsis(deg)": 0.00575500859955894,
        "Eccentricity": 0.0,
        "Inclination(deg)": 45.0,
        "Latitude(deg)": -42.21018164645305,
        "Longitude(deg)": 9.07342666157429,
        "Mean Anomaly(deg)": -108.71819053600977,
        "RAAN(deg)": 224.99456744010536,
        "Satellite Name": "Constellation 1 1005",
        "Satellite Number": 1005,
        "Semi-Major Axis(m)": 7083131.272910544,
        "Time(s)": 96
    },
    {
        "Altitude(m)": 716676.0133156009,
        "Argument of Periapsis(deg)": 0.005814956605804345,
        "Eccentricity": 0.0,
        "Inclination(deg)": 45.0,
        "Latitude(deg)": -42.228663438998886,
        "Longitude(deg)": 9.147013799544293,
        "Mean Anomaly(deg)": -108.6574893957598,
        "RAAN(deg)": 224.99451085093975,
        "Satellite Name": "Constellation 1 1005",
        "Satellite Number": 1005,
        "Semi-Major Axis(m)": 7083131.272910544,
        "Time(s)": 97
    },
    {
        "Altitude(m)": 716683.6399833836,
        "Argument of Periapsis(deg)": 0.00587490461204975,
        "Eccentricity": 0.0,
        "Inclination(deg)": 45.0,
        "Latitude(deg)": -42.24709251468609,
        "Longitude(deg)": 9.220646104279185,
        "Mean Anomaly(deg)": -108.59678825550995,
        "RAAN(deg)": 224.9944542617742,
        "Satellite Name": "Constellation 1 1005",
        "Satellite Number": 1005,
        "Semi-Major Axis(m)": 7083131.272910544,
        "Time(s)": 98
    },
    {
        "Altitude(m)": 716691.244663949,
        "Argument of Periapsis(deg)": 0.005934852618295156,
        "Eccentricity": 0.0,
        "Inclination(deg)": 45.0,
        "Latitude(deg)": -42.26546880966398,
        "Longitude(deg)": 9.294323502147297,
        "Mean Anomaly(deg)": -108.53608711525997,
        "RAAN(deg)": 224.9943976726086,
        "Satellite Name": "Constellation 1 1005",
        "Satellite Number": 1005,
        "Semi-Major Axis(m)": 7083131.272910544,
        "Time(s)": 99
    },
    {
        "Altitude(m)": 716698.8273293641,
        "Argument of Periapsis(deg)": 0.005994800624540561,
        "Eccentricity": 0.0,
        "Inclination(deg)": 45.0,
        "Latitude(deg)": -42.28379226016928,
        "Longitude(deg)": 9.368045918966331,
        "Mean Anomaly(deg)": -108.4753859750101,
        "RAAN(deg)": 224.99434108344306,
        "Satellite Name": "Constellation 1 1005",
        "Satellite Number": 1005,
        "Semi-Major Axis(m)": 7083131.272910544,
        "Time(s)": 100
    },
    {
        "Altitude(m)": 716706.3879517834,
        "Argument of Periapsis(deg)": 0.006054748630785968,
        "Eccentricity": 0.0,
        "Inclination(deg)": 45.0,
        "Latitude(deg)": -42.302062802527196,
        "Longitude(deg)": 9.441813280004224,
        "Mean Anomaly(deg)": -108.41468483476015,
        "RAAN(deg)": 224.9942844942775,
        "Satellite Name": "Constellation 1 1005",
        "Satellite Number": 1005,
        "Semi-Major Axis(m)": 7083131.272910544,
        "Time(s)": 101
    },
    {
        "Altitude(m)": 716713.9265034333,
        "Argument of Periapsis(deg)": 0.006114696637031373,
        "Eccentricity": 0.0,
        "Inclination(deg)": 45.0,
        "Latitude(deg)": -42.32028037315201,
        "Longitude(deg)": 9.515625509977516,
        "Mean Anomaly(deg)": -108.3539836945103,
        "RAAN(deg)": 224.9942279051119,
        "Satellite Name": "Constellation 1 1005",
        "Satellite Number": 1005,
        "Semi-Major Axis(m)": 7083131.272910544,
        "Time(s)": 102
    },
    {
        "Altitude(m)": 716721.4429566312,
        "Argument of Periapsis(deg)": 0.006174644643276778,
        "Eccentricity": 0.0,
        "Inclination(deg)": 45.0,
        "Latitude(deg)": -42.33844490854819,
        "Longitude(deg)": 9.589482533051958,
        "Mean Anomaly(deg)": -108.29328255426044,
        "RAAN(deg)": 224.99417131594635,
        "Satellite Name": "Constellation 1 1005",
        "Satellite Number": 1005,
        "Semi-Major Axis(m)": 7083131.272910544,
        "Time(s)": 103
    },
    {
        "Altitude(m)": 716728.9372837611,
        "Argument of Periapsis(deg)": 0.006234592649522184,
        "Eccentricity": 0.0,
        "Inclination(deg)": 45.0,
        "Latitude(deg)": -42.356556345311425,
        "Longitude(deg)": 9.66338410474437,
        "Mean Anomaly(deg)": -108.23258141401047,
        "RAAN(deg)": 224.99411472678077,
        "Satellite Name": "Constellation 1 1005",
        "Satellite Number": 1005,
        "Semi-Major Axis(m)": 7083131.272910544,
        "Time(s)": 104
    },
    {
        "Altitude(m)": 716736.4094572882,
        "Argument of Periapsis(deg)": 0.00629454065576759,
        "Eccentricity": 0.0,
        "Inclination(deg)": 45.0,
        "Latitude(deg)": -42.37461462012826,
        "Longitude(deg)": 9.737330484310343,
        "Mean Anomaly(deg)": -108.17188027376064,
        "RAAN(deg)": 224.9940581376152,
        "Satellite Name": "Constellation 1 1005",
        "Satellite Number": 1005,
        "Semi-Major Axis(m)": 7083131.272910544,
        "Time(s)": 105
    },
    {
        "Altitude(m)": 716743.8594497725,
        "Argument of Periapsis(deg)": 0.006354488662012995,
        "Eccentricity": 0.0,
        "Inclination(deg)": 45.0,
        "Latitude(deg)": -42.39261966977882,
        "Longitude(deg)": 9.811321426162223,
        "Mean Anomaly(deg)": -108.11117913351075,
        "RAAN(deg)": 224.9940015484496,
        "Satellite Name": "Constellation 1 1005",
        "Satellite Number": 1005,
        "Semi-Major Axis(m)": 7083131.272910544,
        "Time(s)": 106
    },
    {
        "Altitude(m)": 716751.2872338411,
        "Argument of Periapsis(deg)": 0.006414436668258401,
        "Eccentricity": 0.0,
        "Inclination(deg)": 45.0,
        "Latitude(deg)": -42.4105714311365,
        "Longitude(deg)": 9.88535685225648,
        "Mean Anomaly(deg)": -108.05047799326081,
        "RAAN(deg)": 224.99394495928405,
        "Satellite Name": "Constellation 1 1005",
        "Satellite Number": 1005,
        "Semi-Major Axis(m)": 7083131.272910544,
        "Time(s)": 107
    },
    {
        "Altitude(m)": 716758.6927822008,
        "Argument of Periapsis(deg)": 0.0064743846745038075,
        "Eccentricity": 0.0,
        "Inclination(deg)": 45.0,
        "Latitude(deg)": -42.42846984116907,
        "Longitude(deg)": 9.959436683996104,
        "Mean Anomaly(deg)": -107.98977685301092,
        "RAAN(deg)": 224.99388837011847,
        "Satellite Name": "Constellation 1 1005",
        "Satellite Number": 1005,
        "Semi-Major Axis(m)": 7083131.272910544,
        "Time(s)": 108
    },
    {
        "Altitude(m)": 716766.0760676462,
        "Argument of Periapsis(deg)": 0.0065343326807492125,
        "Eccentricity": 0.0,
        "Inclination(deg)": 45.0,
        "Latitude(deg)": -42.44631483693953,
        "Longitude(deg)": 10.033560842230932,
        "Mean Anomaly(deg)": -107.92907571276098,
        "RAAN(deg)": 224.99383178095292,
        "Satellite Name": "Constellation 1 1005",
        "Satellite Number": 1005,
        "Semi-Major Axis(m)": 7083131.272910544,
        "Time(s)": 109
    },
    {
        "Altitude(m)": 716773.4370630478,
        "Argument of Periapsis(deg)": 0.0065942806869946176,
        "Eccentricity": 0.0,
        "Inclination(deg)": 45.0,
        "Latitude(deg)": -42.46410635560703,
        "Longitude(deg)": 10.107729247256291,
        "Mean Anomaly(deg)": -107.86837457251114,
        "RAAN(deg)": 224.99377519178736,
        "Satellite Name": "Constellation 1 1005",
        "Satellite Number": 1005,
        "Semi-Major Axis(m)": 7083131.272910544,
        "Time(s)": 110
    },
    {
        "Altitude(m)": 716780.7757413564,
        "Argument of Periapsis(deg)": 0.006654228693240024,
        "Eccentricity": 0.0,
        "Inclination(deg)": 45.0,
        "Latitude(deg)": -42.4818443344281,
        "Longitude(deg)": 10.18194165071682,
        "Mean Anomaly(deg)": -107.80767343226124,
        "RAAN(deg)": 224.99371860262175,
        "Satellite Name": "Constellation 1 1005",
        "Satellite Number": 1005,
        "Semi-Major Axis(m)": 7083131.272910544,
        "Time(s)": 111
    },
    {
        "Altitude(m)": 716788.0920756039,
        "Argument of Periapsis(deg)": 0.006714176699485429,
        "Eccentricity": 0.0,
        "Inclination(deg)": 45.0,
        "Latitude(deg)": -42.49952871075617,
        "Longitude(deg)": 10.256198307993438,
        "Mean Anomaly(deg)": -107.74697229201131,
        "RAAN(deg)": 224.9936620134562,
        "Satellite Name": "Constellation 1 1005",
        "Satellite Number": 1005,
        "Semi-Major Axis(m)": 7083131.272910544,
        "Time(s)": 112
    },
    {
        "Altitude(m)": 716795.3860389089,
        "Argument of Periapsis(deg)": 0.006774124705730835,
        "Eccentricity": 0.0,
        "Inclination(deg)": 45.0,
        "Latitude(deg)": -42.517159422044315,
        "Longitude(deg)": 10.33049896962098,
        "Mean Anomaly(deg)": -107.68627115176145,
        "RAAN(deg)": 224.99360542429065,
        "Satellite Name": "Constellation 1 1005",
        "Satellite Number": 1005,
        "Semi-Major Axis(m)": 7083131.272910544,
        "Time(s)": 113
    }
]